ADRAS-J                 
1 58992U 24034A   24281.84069932  .00011867  00000+0  10483-2 0  9994
2 58992  98.2270 260.1726 0044504  40.3992 320.0518 14.95754770 34691
